{
    "links": {
        "self": "http://www.neowsapp.com/rest/v1/neo/3092483?api_key=iIulBulltgU6a56xZRHN4H3l9WmuAYTsLGpBGhQ2"
    },
    "id": "3092483",
    "neo_reference_id": "3092483",
    "name": "(2001 VM5)",
    "designation": "2001 VM5",
    "nasa_jpl_url": "http://ssd.jpl.nasa.gov/sbdb.cgi?sstr=3092483",
    "absolute_magnitude_h": 25.1,
    "estimated_diameter": {
        "kilometers": {
            "estimated_diameter_min": 0.0253837029,
            "estimated_diameter_max": 0.0567596853
        },
        "meters": {
            "estimated_diameter_min": 25.3837029364,
            "estimated_diameter_max": 56.7596852866
        },
        "miles": {
            "estimated_diameter_min": 0.0157726969,
            "estimated_diameter_max": 0.0352688224
        },
        "feet": {
            "estimated_diameter_min": 83.279867942,
            "estimated_diameter_max": 186.2194458756
        }
    },
    "is_potentially_hazardous_asteroid": false,
    "close_approach_data": [
        {
            "close_approach_date": "2001-11-08",
            "close_approach_date_full": "2001-Nov-08 04:26",
            "epoch_date_close_approach": 1005193560000,
            "relative_velocity": {
                "kilometers_per_second": "8.3261926404",
                "kilometers_per_hour": "29974.2935053635",
                "miles_per_hour": "18624.8603172632"
            },
            "miss_distance": {
                "astronomical": "0.014894508",
                "lunar": "5.793963612",
                "kilometers": "2228186.67149796",
                "miles": "1384530.996113448"
            },
            "orbiting_body": "Earth"
        }
    ],
    "orbital_data": {
        "orbit_id": "8",
        "orbit_determination_date": "2017-04-06 09:15:51",
        "first_observation_date": "2001-11-11",
        "last_observation_date": "2001-11-16",
        "data_arc_in_days": 5,
        "observations_used": 13,
        "orbit_uncertainty": "9",
        "minimum_orbit_intersection": ".014091",
        "jupiter_tisserand_invariant": "3.253",
        "epoch_osculation": "2452226.5",
        "eccentricity": ".5862116022744094",
        "semi_major_axis": "2.415243626960037",
        "inclination": "5.851546250865335",
        "ascending_node_longitude": "231.7457685695216",
        "orbital_period": "1371.007542709042",
        "perihelion_distance": ".9993997905167378",
        "perihelion_argument": "168.6055103773296",
        "aphelion_distance": "3.831087463403337",
        "perihelion_time": "2452217.171041170344",
        "mean_anomaly": "2.449603721391701",
        "mean_motion": ".262580612276325",
        "equinox": "J2000",
        "orbit_class": {
            "orbit_class_type": "APO",
            "orbit_class_description": "Near-Earth asteroid orbits which cross the Earth’s orbit similar to that of 1862 Apollo",
            "orbit_class_range": "a (semi-major axis) > 1.0 AU; q (perihelion) < 1.017 AU"
        }
    },
    "is_sentry_object": false
}